GLOBALSTAR M080         
1 38041U 11080B   21201.21401782 -.00000095  00000-0  46515-4 0  9997
2 38041  52.0067  76.8589 0000981  73.2668  56.7043 12.62264242442535
GLOBALSTAR M082         
1 38042U 11080C   21201.52563882 -.00000103  00000-0  67697-5 0  9997
2 38042  52.0090  31.2077 0000616  57.0789 348.3481 12.62265812443225
GLOBALSTAR M092         
1 38043U 11080D   21201.52687853 -.00000123  00000-0 -10785-3 0  9990
2 38043  52.0084 121.5010 0000417  87.5166  83.3238 12.62263536441657
GLOBALSTAR M090         
1 38044U 11080E   21201.54941439 -.00000113  00000-0 -53817-4 0  9999
2 38044  51.9905  26.7832 0000843  69.8301 324.8079 12.62266789443328
GLOBALSTAR M086         
1 38045U 11080F   21201.49836223 -.00000093  00000-0  62798-4 0  9992
2 38045  51.9912  27.3793 0002102  62.5350 339.5435 12.62266581443266
ZIYUAN 3-1 (ZY 3-1)     
1 38046U 12001A   21201.08071550 -.00000067  00000-0  00000-0 0  9991
2 38046  97.3787 274.4259 0002158 155.6037 297.9842 15.21276081529077
FENGYUN 2F              
1 38049U 12002A   21201.64946705 -.00000364  00000-0  00000-0 0  9990
2 38049   2.9922  81.8953 0002462  62.4368 140.2163  1.00267794 34917
WGS F4 (USA 233)        
1 38070U 12003A   21201.52244704 -.00000218  00000-0  00000-0 0  9990
2 38070   0.0140  48.9860 0000510  84.0643  81.9476  1.00267463 26171
LARES                   
1 38077U 12006A   21201.46835019 -.00000030  00000-0  55018-4 0  9993
2 38077  69.4928 114.3680 0011232 286.6091  73.3698 12.54931114432252
SES-4                   
1 38087U 12007A   21201.06975234 -.00000170  00000-0  00000-0 0  9997
2 38087   0.0103  25.0077 0002311 101.2087 174.9579  1.00271794 34267
BEIDOU 11               
1 38091U 12008A   21201.58825058  .00000052  00000-0  00000-0 0  9996
2 38091   1.6207  68.6472 0007590 335.6228 164.7695  1.00270943 34508
MUOS-1                  
1 38093U 12009A   21201.48485894 -.00000131  00000-0  00000-0 0  9997
2 38093   2.6404  21.9031 0054544   3.7310 347.4209  1.00272003 34464
INTELSAT 22 (IS-22)     
1 38098U 12011A   21201.42966263 -.00000062  00000-0  00000-0 0  9996
2 38098   0.0062  22.9984 0002560  98.5710  43.6302  1.00271755 33849
APSTAR 7                
1 38107U 12013A   21201.52009167 -.00000105  00000-0  00000-0 0  9999
2 38107   0.0183 100.4787 0003444  22.8989  78.8538  1.00271285 33835
YAHSAT 1B               
1 38245U 12016A   21201.58586757  .00000123  00000-0  00000+0 0  9994
2 38245   0.0185  61.5567 0002629  47.7619  87.7626  1.00269745 33940
BEIDOU 12               
1 38250U 12018A   21201.10569588 -.00000080  00000-0  00000-0 0  9997
2 38250  56.7522   4.5332 0020406 245.2571 340.7462  1.86234410 62892
BEIDOU 13               
1 38251U 12018B   21200.66017576 -.00000078  00000-0  00000-0 0  9990
2 38251  56.6763   3.8960 0011224 245.4532  86.2362  1.86234278 62887
AEHF-2 (USA 235)        
1 38254U 12019A   21201.49131441 -.00000280  00000-0  00000-0 0  9999
2 38254   2.6847  57.0662 0008689  56.1612 294.6060  1.00270829 32875
TIANHUI 1-02            
1 38256U 12020A   21201.83797356  .00000637  00000-0  29796-4 0  9996
2 38256  97.4615 327.8381 0017297  18.9554 131.9121 15.23280575511911
YAOGAN 14               
1 38257U 12021A   21201.52527975  .00000840  00000-0  38204-4 0  9992
2 38257  97.4982 337.8430 0001680  98.9927 325.3906 15.23482379513004
JCSAT-13                
1 38331U 12023A   21201.52951314 -.00000360  00000-0  00000-0 0  9992
2 38331   0.0146  87.7586 0002368  34.6793 130.7101  1.00271473 33557
VINASAT-2               
1 38332U 12023B   21201.31578604 -.00000332  00000-0  00000-0 0  9996
2 38332   0.0268 308.8987 0002371 168.1224  66.8065  1.00270877 28684
GCOM-W1 (SHIZUKU)       
1 38337U 12025A   21201.42376104  .00000028  00000-0  16279-4 0  9996
2 38337  98.2097 141.6394 0001736 114.1924 356.9199 14.57106036487967
ARIRANG-3 (KOMPSAT-3)   
1 38338U 12025B   21201.79861232  .00000053  00000-0  20096-4 0  9998
2 38338  98.1443 141.0685 0010697 340.4117  19.6685 14.61721620489527
SDS-4                   
1 38339U 12025C   21201.40077199  .00000055  00000-0  17503-4 0  9999
2 38339  98.2944 255.9866 0006421 236.2639 123.7956 14.70658548492117
NIMIQ 6                 
1 38342U 12026A   21201.55838824 -.00000177  00000-0  00000+0 0  9995
2 38342   0.0115   1.0425 0002544 105.9315 301.4793  1.00271065 33623
CHINASAT 2A (ZX 2A)     
1 38352U 12028A   21201.74979744 -.00000297  00000-0  00000+0 0  9999
2 38352   0.0080 237.2730 0002281 192.3373 237.3054  1.00271212 33664
YAOGAN 15               
1 38354U 12029A   21201.71831278 -.00000027  00000-0  48372-4 0  9998
2 38354 100.6353 349.4788 0025602  29.3106 330.9435 13.18265019439258
INTELSAT 19 (IS-19)     
1 38356U 12030A   21201.53788779 -.00000060  00000-0  00000-0 0  9998
2 38356   0.0178  62.2097 0003393  59.5271 176.4256  1.00271956 32463
NUSTAR                  
1 38358U 12031A   21200.59526277  .00000951  00000-0  25301-4 0  9992
2 38358   6.0263 263.6670 0011922 218.1106 141.8179 14.88560184495183
ECHOSTAR 17             
1 38551U 12035A   21201.55524774 -.00000079  00000-0  00000+0 0  9994
2 38551   0.0182  49.2938 0002081  69.5624 272.4684  1.00271635 33153
METEOSAT-10 (MSG-3)     
1 38552U 12035B   21201.29127273  .00000057  00000-0  00000-0 0  9995
2 38552   1.2135  14.1443 0001713 105.3257 292.8473  1.00271389 32886
SES-5                   
1 38652U 12036A   21201.38382847  .00000031  00000-0  00000-0 0  9999
2 38652   0.0558 288.9980 0002230 186.5498 325.9779  1.00271563 26528
KANOPUS-V 1             
1 38707U 12039A   21201.53466405  .00000420  00000-0  22785-4 0  9993
2 38707  97.4628 121.7508 0001806  91.0437  81.9099 15.19797225498955
BKA 2                   
1 38708U 12039B   21201.79226397  .00000249  00000-0  14549-4 0  9994
2 38708  97.3561 105.1055 0002032  86.9050 344.4609 15.20195168499001
EXACTVIEW-1 (ADS-1B)    
1 38709U 12039C   21201.43560825 -.00000009  00000-0  16823-4 0  9995
2 38709  99.0576 253.8336 0010015 294.3754  65.6378 14.24053461467480
TET-1                   
1 38710U 12039D   21201.46994423  .00005402  00000-0  82214-4 0  9993
2 38710  97.5535 257.0866 0002745 137.4310 222.7157 15.54993531505658
MKA-PN 1                
1 38711U 12039E   21201.40275251 -.00000011  00000-0  15853-4 0  9996
2 38711  99.0543 253.2056 0010626 294.8332  65.1741 14.24333566467559
TIANLIAN 1-03           
1 38730U 12040A   21200.88938152  .00000124  00000-0  00000-0 0  9994
2 38730   1.1851  95.9707 0005000 334.6561 207.9495  1.00277697 33000
COSMOS 2481             
1 38733U 12041A   21201.41923993  .00000024  00000-0  99393-4 0  9991
2 38733  82.4759 112.8963 0019472  23.4933 336.7035 12.42384965407213
GONETS-M 3              
1 38734U 12041B   21201.42290780  .00000040  00000-0  21077-3 0  9995
2 38734  82.4753 107.6021 0017551  27.9103 332.2915 12.44820088407670
GONETS-M 4              
1 38736U 12041D   21201.47211945  .00000039  00000-0  20946-3 0  9990
2 38736  82.4806 110.8263 0025644  11.3289 348.8363 12.43823737407504
INTELSAT 20 (IS-20)     
1 38740U 12043A   21200.55952051 -.00000025  00000-0  00000-0 0  9997
2 38740   0.0124  79.5440 0001106 121.0714   6.8640  1.00270472 32769
HYLAS 2                 
1 38741U 12043B   21201.31855080  .00000151  00000-0  00000-0 0  9996
2 38741   0.0508 268.1331 0001888 208.2281 327.6760  1.00273735 32790
EXPRESS-MD2             
1 38745U 12044B   21201.09655908  .00004134  28270-5  12235-3 0  9998
2 38745  49.8712 163.2797 2171307 198.9512 151.6359 11.11278600351401
INTELSAT 21 (IS-21)     
1 38749U 12045A   21201.49323360 -.00000288  00000-0  00000-0 0  9998
2 38749   0.0129 339.1841 0002458 143.6081 295.2600  1.00270583 32551
SPOT 6                  
1 38755U 12047A   21201.70767020 -.00000016  00000-0  63992-5 0  9999
2 38755  98.1993 268.9779 0001671  86.5581 273.5811 14.58552391471793
AEROCUBE 4.5A           
1 38767U 12048K   21201.34847279  .00000542  00000-0  56027-4 0  9991
2 38767  64.6656  71.7025 0156997 356.4463   3.5518 14.92871426101183
AEROCUBE 4.5B           
1 38768U 12048L   21201.29075325  .00000551  00000-0  52589-4 0  9990
2 38768  64.6664  33.1724 0148803 351.0445   8.8017 14.96768135101402
METOP-B                 
1 38771U 12049A   21201.54792948 -.00000012  00000-0  14776-4 0  9999
2 38771  98.7129 261.2033 0000092  76.9153  51.5971 14.21487554458582
BEIDOU 15               
1 38775U 12050B   21201.38952060 -.00000038  00000-0  00000-0 0  9999
2 38775  55.2236 122.8734 0015189 322.2179 335.8711  1.86232369 60275
ASTRA 2F                
1 38778U 12051A   21201.37271435  .00000147  00000-0  00000-0 0  9992
2 38778   0.0950 248.8271 0002649 281.0589 290.8184  1.00268918 23131
GSAT-10                 
1 38779U 12051B   21201.52140021 -.00000169  00000-0  00000-0 0  9991
2 38779   0.0632 275.4950 0001808 198.0887  95.6483  1.00271888 32147
VRSS-1                  
1 38782U 12052A   21201.55532965  .00000025  00000-0  10583-4 0  9992
2 38782  97.7076 251.1194 0016253 316.6842  43.3093 14.76089744474913
NAVSTAR 67 (USA 239)    
1 38833U 12053A   21199.43433059  .00000103  00000-0  00000-0 0  9993
2 38833  53.5739 217.0452 0110878  41.7338 319.1574  2.00557386 63444
GSAT0103 (GALILEO-FM3)  
1 38857U 12055A   21200.11139149  .00000028  00000-0  00000-0 0  9998
2 38857  55.0538 150.8676 0004423 272.8910  87.0211  1.70473657 54428
GSAT0104 (GALILEO-FM4)  
1 38858U 12055B   21201.25522579  .00000015  00000-0  00000+0 0  9993
2 38858  55.0528 150.8377 0002249 279.5026  80.4275  1.70473899 54551
SJ-9A                   
1 38860U 12056A   21201.39489566  .00000057  00000-0  14160-4 0  9993
2 38860  97.6246 236.1425 0029831  19.5743 340.6612 14.79662430473284
SJ-9B                   
1 38861U 12056B   21201.77765307  .00000066  00000-0  14802-4 0  9999
2 38861  97.6398 245.7287 0018707  14.1434 346.0292 14.81640210473686
